ONEWEB-0006             
1 44061U 19010E   23059.12166893 -.00003502  00000+0 -93367-2 0  9992
2 44061  87.8998 139.1417 0001589 107.4577 252.6727 13.15566531192982
ONEWEB-0006             
1 44061U 19010E   23059.27378976  .00000086  00000+0  19371-3 0  9991
2 44061  87.8998 139.1114 0001475 108.2195 251.9096 13.15547805193003
ONEWEB-0006             
1 44061U 19010E   23059.73013294  .00000054  00000+0  10917-3 0  9993
2 44061  87.9000 139.0202 0001506 109.8494 250.2799 13.15548610193062
ONEWEB-0006             
1 44061U 19010E   23060.26253384 -.00000024  00000+0 -98331-4 0  9995
2 44061  87.8998 138.9141 0001527 109.6304 250.4991 13.15548787193137
ONEWEB-0006             
1 44061U 19010E   23061.63156503 -.00000085  00000+0 -25992-3 0  9991
2 44061  87.8997 138.6415 0001532 109.4658 250.6638 13.15548647193318
ONEWEB-0006             
1 44061U 19010E   23062.24002286 -.00000065  00000+0 -20635-3 0  9994
2 44061  87.8996 138.5203 0001547 109.4992 250.6305 13.15549146193392
